{"type": "FeatureCollection", "features": [ {"type": "Feature", "properties": {"norad_id": 30134, "name": "FENGYUN 1C DEB", "group": "fengyun-1c-debris", "lat": -81.01669795944628, "lon": 73.28863922062229, "alt_km": 849.7407343576415, "timestamp": "2025-12-04T13:52:00.716820+00:00", "meta": {"OBJECT_NAME": "FENGYUN 1C DEB", "OBJECT_ID": "1999-025SP", "EPOCH": "2025-12-04T07:35:08.975040", "MEAN_MOTION": 14.13325934, "ECCENTRICITY": 0.00185944, "INCLINATION": 98.6942, "RA_OF_ASC_NODE": 357.5858, "ARG_OF_PERICENTER": 207.5261, "MEAN_ANOMALY": 173.7058, "EPHEMERIS_TYPE": 0, "CLASSIFICATION_TYPE": "U", "NORAD_CAT_ID": 30134, "ELEMENT_SET_NO": 999, "REV_AT_EPOCH": 97127, "BSTAR": 0.00081532882, "MEAN_MOTION_DOT": 1.489e-05, "MEAN_MOTION_DDOT": 0}, "tle": {"line1": "1 30134U 99025SP  25338.31607610  .00001489  00000+0  81533-3 0  9995", "line2": "2 30134  98.6942 357.5858 0018594 207.5261 173.7058 14.13325934971274"}}, "geometry": {"type": "Point", "coordinates": [73.28863922062229, -81.01669795944628]}}, {"type": "Feature", "properties": {"norad_id": 30136, "name": "FENGYUN 1C DEB", "group": "fengyun-1c-debris", "lat": 80.6933940617183, "lon": 118.7558159171154, "alt_km": 808.467404576616, "timestamp": "2025-12-04T13:52:00.716830+00:00", "meta": {"OBJECT_NAME": "FENGYUN 1C DEB", "OBJECT_ID": "1999-025SR", "EPOCH": "2025-12-02T05:15:04.555008", "MEAN_MOTION": 13.95304029, "ECCENTRICITY": 0.0129263, "INCLINATION": 98.5563, "RA_OF_ASC_NODE": 229.831, "ARG_OF_PERICENTER": 98.5456, "MEAN_ANOMALY": 32.2114, "EPHEMERIS_TYPE": 0, "CLASSIFICATION_TYPE": "U", "NORAD_CAT_ID": 30136, "ELEMENT_SET_NO": 999, "REV_AT_EPOCH": 95944, "BSTAR": 0.00046682, "MEAN_MOTION_DOT": 6.39e-06, "MEAN_MOTION_DDOT": 0}, "tle": {"line1": "1 30136U 99025SR  25336.21880272  .00000639  00000+0  46682-3 0  9993", "line2": "2 30136  98.5563 229.8310 0129263  98.5456  32.2114 13.95304029959446"}}, "geometry": {"type": "Point", "coordinates": [118.7558159171154, 80.6933940617183]}}, {"type": "Feature", "properties": {"norad_id": 30138, "name": "FENGYUN 1C DEB", "group": "fengyun-1c-debris", "lat": 1.6129640833832102, "lon": -147.82746047269967, "alt_km": 814.1506429445599, "timestamp": "2025-12-04T13:52:00.716840+00:00", "meta": {"OBJECT_NAME": "FENGYUN 1C DEB", "OBJECT_ID": "1999-025ST", "EPOCH": "2025-12-04T03:08:30.677568", "MEAN_MOTION": 14.19981437, "ECCENTRICITY": 0.00203137, "INCLINATION": 98.7602, "RA_OF_ASC_NODE": 31.4815, "ARG_OF_PERICENTER": 161.9505, "MEAN_ANOMALY": 253.1151, "EPHEMERIS_TYPE": 0, "CLASSIFICATION_TYPE": "U", "NORAD_CAT_ID": 30138, "ELEMENT_SET_NO": 999, "REV_AT_EPOCH": 97279, "BSTAR": 0.001685041, "MEAN_MOTION_DOT": 3.547e-05, "MEAN_MOTION_DDOT": 0}, "tle": {"line1": "1 30138U 99025ST  25338.13091062  .00003547  00000+0  16850-2 0  9993", "line2": "2 30138  98.7602  31.4815 0020313 161.9505 253.1151 14.19981437972796"}}, "geometry": {"type": "Point", "coordinates": [-147.82746047269967, 1.6129640833832102]}}, {"type": "Feature", "properties": {"norad_id": 30139, "name": "FENGYUN 1C DEB", "group": "fengyun-1c-debris", "lat": 41.73981530342645, "lon": 10.352754400741572, "alt_km": 973.1222558037816, "timestamp": "2025-12-04T13:52:00.716850+00:00", "meta": {"OBJECT_NAME": "FENGYUN 1C DEB", "OBJECT_ID": "1999-025SU", "EPOCH": "2025-12-04T01:51:43.767360", "MEAN_MOTION": 14.03602989, "ECCENTRICITY": 0.01314687, "INCLINATION": 98.3646, "RA_OF_ASC_NODE": 182.3494, "ARG_OF_PERICENTER": 314.9894, "MEAN_ANOMALY": 176.6826, "EPHEMERIS_TYPE": 0, "CLASSIFICATION_TYPE": "U", "NORAD_CAT_ID": 30139, "ELEMENT_SET_NO": 999, "REV_AT_EPOCH": 96128, "BSTAR": 0.0020938316, "MEAN_MOTION_DOT": 3.509e-05, "MEAN_MOTION_DDOT": 0}, "tle": {"line1": "1 30139U 99025SU  25338.07758990  .00003509  00000+0  20938-2 0  9997", "line2": "2 30139  98.3646 182.3494 0131468 314.9894 176.6826 14.03602989961280"}}, "geometry": {"type": "Point", "coordinates": [10.352754400741572, 41.73981530342645]}}, {"type": "Feature", "properties": {"norad_id": 30140, "name": "FENGYUN 1C DEB", "group": "fengyun-1c-debris", "lat": -27.540252448074778, "lon": 46.10896297266633, "alt_km": 799.629314774189, "timestamp": "2025-12-04T13:52:00.716861+00:00", "meta": {"OBJECT_NAME": "FENGYUN 1C DEB", "OBJECT_ID": "1999-025SV", "EPOCH": "2025-12-02T22:15:25.230240", "MEAN_MOTION": 14.20661365, "ECCENTRICITY": 0.00405153, "INCLINATION": 98.8281, "RA_OF_ASC_NODE": 39.8128, "ARG_OF_PERICENTER": 338.7355, "MEAN_ANOMALY": 197.3654, "EPHEMERIS_TYPE": 0, "CLASSIFICATION_TYPE": "U", "NORAD_CAT_ID": 30140, "ELEMENT_SET_NO": 999, "REV_AT_EPOCH": 97004, "BSTAR": 0.0017220317, "MEAN_MOTION_DOT": 3.696e-05, "MEAN_MOTION_DDOT": 0}, "tle": {"line1": "1 30140U 99025SV  25336.92737535  .00003696  00000+0  17220-2 0  9990", "line2": "2 30140  98.8281  39.8128 0040515 338.7355 197.3654 14.20661365970045"}}, "geometry": {"type": "Point", "coordinates": [46.10896297266633, -27.540252448074778]}}, {"type": "Feature", "properties": {"norad_id": 30141, "name": "FENGYUN 1C DEB", "group": "fengyun-1c-debris", "lat": -26.42815555799113, "lon": 75.23664237647054, "alt_km": 738.7578871403239, "timestamp": "2025-12-04T13:52:00.716871+00:00", "meta": {"OBJECT_NAME": "FENGYUN 1C DEB", "OBJECT_ID": "1999-025SW", "EPOCH": "2025-12-04T01:20:10.205952", "MEAN_MOTION": 14.51262969, "ECCENTRICITY": 0.00190852, "INCLINATION": 99.0143, "RA_OF_ASC_NODE": 259.2026, "ARG_OF_PERICENTER": 58.9124, "MEAN_ANOMALY": 301.3939, "EPHEMERIS_TYPE": 0, "CLASSIFICATION_TYPE": "U", "NORAD_CAT_ID": 30141, "ELEMENT_SET_NO": 999, "REV_AT_EPOCH": 98118, "BSTAR": 0.0059693554, "MEAN_MOTION_DOT": 0.00023829, "MEAN_MOTION_DDOT": 0}, "tle": {"line1": "1 30141U 99025SW  25338.05567368  .00023829  00000+0  59694-2 0  9993", "line2": "2 30141  99.0143 259.2026 0019085  58.9124 301.3939 14.51262969981185"}}, "geometry": {"type": "Point", "coordinates": [75.23664237647054, -26.42815555799113]}}, {"type": "Feature", "properties": {"norad_id": 30142, "name": "FENGYUN 1C DEB", "group": "fengyun-1c-debris", "lat": -0.2077310137252303, "lon": -125.80492907592131, "alt_km": 924.7639004962402, "timestamp": "2025-12-04T13:52:00.716881+00:00", "meta": {"OBJECT_NAME": "FENGYUN 1C DEB", "OBJECT_ID": "1999-025SX", "EPOCH": "2025-12-03T11:28:19.022016", "MEAN_MOTION": 14.1039561, "ECCENTRICITY": 0.01007944, "INCLINATION": 99.1301, "RA_OF_ASC_NODE": 53.112, "ARG_OF_PERICENTER": 334.5483, "MEAN_ANOMALY": 25.0742, "EPHEMERIS_TYPE": 0, "CLASSIFICATION_TYPE": "U", "NORAD_CAT_ID": 30142, "ELEMENT_SET_NO": 999, "REV_AT_EPOCH": 96168, "BSTAR": 0.0020772864, "MEAN_MOTION_DOT": 3.825e-05, "MEAN_MOTION_DDOT": 0}, "tle": {"line1": "1 30142U 99025SX  25337.47799794  .00003825  00000+0  20773-2 0  9999", "line2": "2 30142  99.1301  53.1120 0100794 334.5483  25.0742 14.10395610961688"}}, "geometry": {"type": "Point", "coordinates": [-125.80492907592131, -0.2077310137252303]}}, {"type": "Feature", "properties": {"norad_id": 30143, "name": "FENGYUN 1C DEB", "group": "fengyun-1c-debris", "lat": -16.282352541861478, "lon": 164.76998111903845, "alt_km": 824.1663212276508, "timestamp": "2025-12-04T13:52:00.716891+00:00", "meta": {"OBJECT_NAME": "FENGYUN 1C DEB", "OBJECT_ID": "1999-025SY", "EPOCH": "2025-12-04T07:41:28.079232", "MEAN_MOTION": 14.02533557, "ECCENTRICITY": 0.01040119, "INCLINATION": 98.7341, "RA_OF_ASC_NODE": 161.9497, "ARG_OF_PERICENTER": 314.328, "MEAN_ANOMALY": 170.1842, "EPHEMERIS_TYPE": 0, "CLASSIFICATION_TYPE": "U", "NORAD_CAT_ID": 30143, "ELEMENT_SET_NO": 999, "REV_AT_EPOCH": 96101, "BSTAR": 0.0023683471, "MEAN_MOTION_DOT": 3.782e-05, "MEAN_MOTION_DDOT": 0}, "tle": {"line1": "1 30143U 99025SY  25338.32046388  .00003782  00000+0  23683-2 0  9994", "line2": "2 30143  98.7341 161.9497 0104011 314.3280 170.1842 14.02533557961015"}}, "geometry": {"type": "Point", "coordinates": [164.76998111903845, -16.282352541861478]}}, {"type": "Feature", "properties": {"norad_id": 30144, "name": "FENGYUN 1C DEB", "group": "fengyun-1c-debris", "lat": -11.811150898690224, "lon": -26.509345146844527, "alt_km": 850.7770464585838, "timestamp": "2025-12-04T13:52:00.716901+00:00", "meta": {"OBJECT_NAME": "FENGYUN 1C DEB", "OBJECT_ID": "1999-025SZ", "EPOCH": "2025-12-02T12:29:39.543648", "MEAN_MOTION": 13.91793061, "ECCENTRICITY": 0.01260725, "INCLINATION": 99.0097, "RA_OF_ASC_NODE": 329.5909, "ARG_OF_PERICENTER": 318.8143, "MEAN_ANOMALY": 166.6543, "EPHEMERIS_TYPE": 0, "CLASSIFICATION_TYPE": "U", "NORAD_CAT_ID": 30144, "ELEMENT_SET_NO": 999, "REV_AT_EPOCH": 95698, "BSTAR": 0.00077423743, "MEAN_MOTION_DOT": 1.007e-05, "MEAN_MOTION_DDOT": 0}, "tle": {"line1": "1 30144U 99025SZ  25336.52059657  .00001007  00000+0  77424-3 0  9999", "line2": "2 30144  99.0097 329.5909 0126072 318.8143 166.6543 13.91793061956989"}}, "geometry": {"type": "Point", "coordinates": [-26.509345146844527, -11.811150898690224]}}, {"type": "Feature", "properties": {"norad_id": 30145, "name": "FENGYUN 1C DEB", "group": "fengyun-1c-debris", "lat": 47.42876733389914, "lon": -81.90199451613475, "alt_km": 789.9331948366071, "timestamp": "2025-12-04T13:52:00.716911+00:00", "meta": {"OBJECT_NAME": "FENGYUN 1C DEB", "OBJECT_ID": "1999-025TA", "EPOCH": "2025-12-04T06:42:44.592192", "MEAN_MOTION": 14.13867015, "ECCENTRICITY": 0.0092525, "INCLINATION": 99.2708, "RA_OF_ASC_NODE": 87.547, "ARG_OF_PERICENTER": 171.8631, "MEAN_ANOMALY": 243.9796, "EPHEMERIS_TYPE": 0, "CLASSIFICATION_TYPE": "U", "NORAD_CAT_ID": 30145, "ELEMENT_SET_NO": 999, "REV_AT_EPOCH": 96076, "BSTAR": 0.0081561541, "MEAN_MOTION_DOT": 0.0001609, "MEAN_MOTION_DDOT": 0}, "tle": {"line1": "1 30145U 99025TA  25338.27968278  .00016090  00000+0  81562-2 0  9997", "line2": "2 30145  99.2708  87.5470 0092525 171.8631 243.9796 14.13867015960765"}}, "geometry": {"type": "Point", "coordinates": [-81.90199451613475, 47.42876733389914]}}]}